STARLINK-3793           
1 52380U 22045BB  26055.47220312  .00000626  00000+0  57376-4 0  9995
2 52380  53.2157 238.4877 0001177  86.0180 274.0947 15.08848583214067
STARLINK-3799           
1 52382U 22045BD  26054.95239517 -.00000318  00000+0 -18684-5 0  9996
2 52382  53.2169 250.8036 0001630  92.4927 267.6252 15.08835690213859
STARLINK-3811           
1 52383U 22045BE  26055.50531370  .00001256  00000+0  97013-4 0  9993
2 52383  53.2155 238.3369 0001288  81.0529 279.0609 15.08834679214070
STARLINK-3870           
1 52451U 22049A   26055.46391608 -.00000568  00000+0 -17614-4 0  9992
2 52451  53.2175 128.4938 0001449  88.6850 271.4308 15.08834409210112
STARLINK-3909           
1 52452U 22049B   26055.34246028 -.00000472  00000+0 -11567-4 0  9990
2 52452  53.2172 128.9135 0001395  83.0838 277.0313 15.08831930210090
STARLINK-3872           
1 52453U 22049C   26055.45656262  .00003085  00000+0  21192-3 0  9993
2 52453  53.2165 128.5294 0000817  89.1823 270.9263 15.08821371210111
STARLINK-3888           
1 52454U 22049D   26055.46023663 -.00000077  00000+0  13262-4 0  9997
2 52454  53.2175 128.5121 0001285  82.9236 277.1903 15.08836941210110
STARLINK-3890           
1 52455U 22049E   26055.45383401 -.00000410  00000+0 -76632-5 0  9999
2 52455  53.2178 128.5445 0001428  79.0671 281.0482 15.08839626210111
STARLINK-3896           
1 52456U 22049F   26055.51639360  .00000172  00000+0  28928-4 0  9992
2 52456  53.2170 128.2606 0001268  84.7313 275.3823 15.08833879210128
STARLINK-3899           
1 52457U 22049G   26055.51175614  .00001009  00000+0  81489-4 0  9991
2 52457  53.2177 128.2702 0001232  94.2546 265.8587 15.08834484210122
STARLINK-3898           
1 52458U 22049H   26055.50903369 -.00000099  00000+0  11847-4 0  9997
2 52458  53.2165 128.2920 0001365  92.0464 268.0685 15.08834413210120
STARLINK-3856           
1 52459U 22049J   26055.49427287 -.00000021  00000+0  16752-4 0  9991
2 52459  53.2172 118.3587 0001217  83.9880 276.1251 15.08840151210254
STARLINK-3900           
1 52461U 22049L   26055.42527457 -.00001141  00000+0 -53590-4 0  9993
2 52461  53.2182 108.6663 0001472  93.3972 266.7189 15.08835507210383
STARLINK-3903           
1 52462U 22049M   26055.48788946  .00000272  00000+0  35195-4 0  9995
2 52462  53.2168 118.3941 0001595  99.5625 260.5547 15.08829125210259
STARLINK-3885           
1 52463U 22049N   26055.42159233  .00001826  00000+0  13278-3 0  9994
2 52463  53.2159 108.6841 0001384  97.1991 262.9159 15.08832638210389
STARLINK-3904           
1 52464U 22049P   26055.49059685 -.00000009  00000+0  17537-4 0  9998
2 52464  53.2167 118.3765 0001296  82.4566 277.6573 15.08838173210258
STARLINK-3863           
1 52465U 22049Q   26055.41791272 -.00001247  00000+0 -60302-4 0  9990
2 52465  53.2170 108.7028 0001275  95.0602 265.0535 15.08830038210381
