[{"OBJECT_NAME":"STARLINK-3793","OBJECT_ID":"2022-045BB","EPOCH":"2026-02-24T11:19:58.349568","MEAN_MOTION":15.08848583,"ECCENTRICITY":0.0001177,"INCLINATION":53.2157,"RA_OF_ASC_NODE":238.4877,"ARG_OF_PERICENTER":86.018,"MEAN_ANOMALY":274.0947,"EPHEMERIS_TYPE":0,"CLASSIFICATION_TYPE":"U","NORAD_CAT_ID":52380,"ELEMENT_SET_NO":999,"REV_AT_EPOCH":21406,"BSTAR":5.7376e-5,"MEAN_MOTION_DOT":6.26e-6,"MEAN_MOTION_DDOT":0},{"OBJECT_NAME":"STARLINK-3799","OBJECT_ID":"2022-045BD","EPOCH":"2026-02-23T22:51:26.942688","MEAN_MOTION":15.0883569,"ECCENTRICITY":0.00016304,"INCLINATION":53.2169,"RA_OF_ASC_NODE":250.8036,"ARG_OF_PERICENTER":92.4927,"MEAN_ANOMALY":267.6252,"EPHEMERIS_TYPE":0,"CLASSIFICATION_TYPE":"U","NORAD_CAT_ID":52382,"ELEMENT_SET_NO":999,"REV_AT_EPOCH":21385,"BSTAR":-1.868374e-6,"MEAN_MOTION_DOT":-3.18e-6,"MEAN_MOTION_DDOT":0},{"OBJECT_NAME":"STARLINK-3811","OBJECT_ID":"2022-045BE","EPOCH":"2026-02-24T12:07:39.103680","MEAN_MOTION":15.08834679,"ECCENTRICITY":0.0001288,"INCLINATION":53.2155,"RA_OF_ASC_NODE":238.3369,"ARG_OF_PERICENTER":81.0529,"MEAN_ANOMALY":279.0609,"EPHEMERIS_TYPE":0,"CLASSIFICATION_TYPE":"U","NORAD_CAT_ID":52383,"ELEMENT_SET_NO":999,"REV_AT_EPOCH":21407,"BSTAR":9.7013e-5,"MEAN_MOTION_DOT":1.256e-5,"MEAN_MOTION_DDOT":0},{"OBJECT_NAME":"STARLINK-3870","OBJECT_ID":"2022-049A","EPOCH":"2026-02-24T11:08:02.349312","MEAN_MOTION":15.08834409,"ECCENTRICITY":0.0001449,"INCLINATION":53.2175,"RA_OF_ASC_NODE":128.4938,"ARG_OF_PERICENTER":88.685,"MEAN_ANOMALY":271.4308,"EPHEMERIS_TYPE":0,"CLASSIFICATION_TYPE":"U","NORAD_CAT_ID":52451,"ELEMENT_SET_NO":999,"REV_AT_EPOCH":21011,"BSTAR":-1.7614e-5,"MEAN_MOTION_DOT":-5.68e-6,"MEAN_MOTION_DDOT":0},{"OBJECT_NAME":"STARLINK-3909","OBJECT_ID":"2022-049B","EPOCH":"2026-02-24T08:13:08.568192","MEAN_MOTION":15.0883193,"ECCENTRICITY":0.0001395,"INCLINATION":53.2172,"RA_OF_ASC_NODE":128.9135,"ARG_OF_PERICENTER":83.0838,"MEAN_ANOMALY":277.0313,"EPHEMERIS_TYPE":0,"CLASSIFICATION_TYPE":"U","NORAD_CAT_ID":52452,"ELEMENT_SET_NO":999,"REV_AT_EPOCH":21009,"BSTAR":-1.1567e-5,"MEAN_MOTION_DOT":-4.72e-6,"MEAN_MOTION_DDOT":0},{"OBJECT_NAME":"STARLINK-3872","OBJECT_ID":"2022-049C","EPOCH":"2026-02-24T10:57:27.010368","MEAN_MOTION":15.08821371,"ECCENTRICITY":8.17e-5,"INCLINATION":53.2165,"RA_OF_ASC_NODE":128.5294,"ARG_OF_PERICENTER":89.1823,"MEAN_ANOMALY":270.9263,"EPHEMERIS_TYPE":0,"CLASSIFICATION_TYPE":"U","NORAD_CAT_ID":52453,"ELEMENT_SET_NO":999,"REV_AT_EPOCH":21011,"BSTAR":0.00021192,"MEAN_MOTION_DOT":3.085e-5,"MEAN_MOTION_DDOT":0},{"OBJECT_NAME":"STARLINK-3888","OBJECT_ID":"2022-049D","EPOCH":"2026-02-24T11:02:44.444832","MEAN_MOTION":15.08836941,"ECCENTRICITY":0.0001285,"INCLINATION":53.2175,"RA_OF_ASC_NODE":128.5121,"ARG_OF_PERICENTER":82.9236,"MEAN_ANOMALY":277.1903,"EPHEMERIS_TYPE":0,"CLASSIFICATION_TYPE":"U","NORAD_CAT_ID":52454,"ELEMENT_SET_NO":999,"REV_AT_EPOCH":21011,"BSTAR":1.3262e-5,"MEAN_MOTION_DOT":-7.7e-7,"MEAN_MOTION_DDOT":0},{"OBJECT_NAME":"STARLINK-3890","OBJECT_ID":"2022-049E","EPOCH":"2026-02-24T10:53:31.258464","MEAN_MOTION":15.08839626,"ECCENTRICITY":0.0001428,"INCLINATION":53.2178,"RA_OF_ASC_NODE":128.5445,"ARG_OF_PERICENTER":79.0671,"MEAN_ANOMALY":281.0482,"EPHEMERIS_TYPE":0,"CLASSIFICATION_TYPE":"U","NORAD_CAT_ID":52455,"ELEMENT_SET_NO":999,"REV_AT_EPOCH":21011,"BSTAR":-7.6632e-6,"MEAN_MOTION_DOT":-4.1e-6,"MEAN_MOTION_DDOT":0},{"OBJECT_NAME":"STARLINK-3896","OBJECT_ID":"2022-049F","EPOCH":"2026-02-24T12:23:36.407040","MEAN_MOTION":15.08833879,"ECCENTRICITY":0.0001268,"INCLINATION":53.217,"RA_OF_ASC_NODE":128.2606,"ARG_OF_PERICENTER":84.7313,"MEAN_ANOMALY":275.3823,"EPHEMERIS_TYPE":0,"CLASSIFICATION_TYPE":"U","NORAD_CAT_ID":52456,"ELEMENT_SET_NO":999,"REV_AT_EPOCH":21012,"BSTAR":2.8928e-5,"MEAN_MOTION_DOT":1.72e-6,"MEAN_MOTION_DDOT":0},{"OBJECT_NAME":"STARLINK-3899","OBJECT_ID":"2022-049G","EPOCH":"2026-02-24T12:16:55.730496","MEAN_MOTION":15.08834484,"ECCENTRICITY":0.0001232,"INCLINATION":53.2177,"RA_OF_ASC_NODE":128.2702,"ARG_OF_PERICENTER":94.2546,"MEAN_ANOMALY":265.8587,"EPHEMERIS_TYPE":0,"CLASSIFICATION_TYPE":"U","NORAD_CAT_ID":52457,"ELEMENT_SET_NO":999,"REV_AT_EPOCH":21012,"BSTAR":8.1489e-5,"MEAN_MOTION_DOT":1.009e-5,"MEAN_MOTION_DDOT":0},{"OBJECT_NAME":"STARLINK-3898","OBJECT_ID":"2022-049H","EPOCH":"2026-02-24T12:13:00.510816","MEAN_MOTION":15.08834413,"ECCENTRICITY":0.0001365,"INCLINATION":53.2165,"RA_OF_ASC_NODE":128.292,"ARG_OF_PERICENTER":92.0464,"MEAN_ANOMALY":268.0685,"EPHEMERIS_TYPE":0,"CLASSIFICATION_TYPE":"U","NORAD_CAT_ID":52458,"ELEMENT_SET_NO":999,"REV_AT_EPOCH":21012,"BSTAR":1.1847e-5,"MEAN_MOTION_DOT":-9.9e-7,"MEAN_MOTION_DDOT":0},{"OBJECT_NAME":"STARLINK-3856","OBJECT_ID":"2022-049J","EPOCH":"2026-02-24T11:51:45.175968","MEAN_MOTION":15.08840151,"ECCENTRICITY":0.0001217,"INCLINATION":53.2172,"RA_OF_ASC_NODE":118.3587,"ARG_OF_PERICENTER":83.988,"MEAN_ANOMALY":276.1251,"EPHEMERIS_TYPE":0,"CLASSIFICATION_TYPE":"U","NORAD_CAT_ID":52459,"ELEMENT_SET_NO":999,"REV_AT_EPOCH":21025,"BSTAR":1.6752e-5,"MEAN_MOTION_DOT":-2.1e-7,"MEAN_MOTION_DDOT":0},{"OBJECT_NAME":"STARLINK-3900","OBJECT_ID":"2022-049L","EPOCH":"2026-02-24T10:12:23.722848","MEAN_MOTION":15.08835507,"ECCENTRICITY":0.0001472,"INCLINATION":53.2182,"RA_OF_ASC_NODE":108.6663,"ARG_OF_PERICENTER":93.3972,"MEAN_ANOMALY":266.7189,"EPHEMERIS_TYPE":0,"CLASSIFICATION_TYPE":"U","NORAD_CAT_ID":52461,"ELEMENT_SET_NO":999,"REV_AT_EPOCH":21038,"BSTAR":-5.359e-5,"MEAN_MOTION_DOT":-1.141e-5,"MEAN_MOTION_DDOT":0},{"OBJECT_NAME":"STARLINK-3903","OBJECT_ID":"2022-049M","EPOCH":"2026-02-24T11:42:33.649344","MEAN_MOTION":15.08829125,"ECCENTRICITY":0.0001595,"INCLINATION":53.2168,"RA_OF_ASC_NODE":118.3941,"ARG_OF_PERICENTER":99.5625,"MEAN_ANOMALY":260.5547,"EPHEMERIS_TYPE":0,"CLASSIFICATION_TYPE":"U","NORAD_CAT_ID":52462,"ELEMENT_SET_NO":999,"REV_AT_EPOCH":21025,"BSTAR":3.5195e-5,"MEAN_MOTION_DOT":2.72e-6,"MEAN_MOTION_DDOT":0},{"OBJECT_NAME":"STARLINK-3885","OBJECT_ID":"2022-049N","EPOCH":"2026-02-24T10:07:05.577312","MEAN_MOTION":15.08832638,"ECCENTRICITY":0.0001384,"INCLINATION":53.2159,"RA_OF_ASC_NODE":108.6841,"ARG_OF_PERICENTER":97.1991,"MEAN_ANOMALY":262.9159,"EPHEMERIS_TYPE":0,"CLASSIFICATION_TYPE":"U","NORAD_CAT_ID":52463,"ELEMENT_SET_NO":999,"REV_AT_EPOCH":21038,"BSTAR":0.00013278,"MEAN_MOTION_DOT":1.826e-5,"MEAN_MOTION_DDOT":0},{"OBJECT_NAME":"STARLINK-3904","OBJECT_ID":"2022-049P","EPOCH":"2026-02-24T11:46:27.567840","MEAN_MOTION":15.08838173,"ECCENTRICITY":0.0001296,"INCLINATION":53.2167,"RA_OF_ASC_NODE":118.3765,"ARG_OF_PERICENTER":82.4566,"MEAN_ANOMALY":277.6573,"EPHEMERIS_TYPE":0,"CLASSIFICATION_TYPE":"U","NORAD_CAT_ID":52464,"ELEMENT_SET_NO":999,"REV_AT_EPOCH":21025,"BSTAR":1.7537e-5,"MEAN_MOTION_DOT":-9.0e-8,"MEAN_MOTION_DDOT":0},{"OBJECT_NAME":"STARLINK-3863","OBJECT_ID":"2022-049Q","EPOCH":"2026-02-24T10:01:47.659008","MEAN_MOTION":15.08830038,"ECCENTRICITY":0.0001275,"INCLINATION":53.217,"RA_OF_ASC_NODE":108.7028,"ARG_OF_PERICENTER":95.0602,"MEAN_ANOMALY":265.0535,"EPHEMERIS_TYPE":0,"CLASSIFICATION_TYPE":"U","NORAD_CAT_ID":52465,"ELEMENT_SET_NO":999,"REV_AT_EPOCH":21038,"BSTAR":-6.0302e-5,"MEAN_MOTION_DOT":-1.247e-5,"MEAN_MOTION_DDOT":0}]
